{
  "links" : {
    "next" : "https://api.nasa.gov/neo/rest/v1/feed?start_date=2009-03-23&end_date=2009-03-23&detailed=true&api_key=t0TVs3DtDT2H8Oy2Zy8m2eVrNsAVKAexjcZXUckd",
    "prev" : "https://api.nasa.gov/neo/rest/v1/feed?start_date=2009-03-21&end_date=2009-03-21&detailed=true&api_key=t0TVs3DtDT2H8Oy2Zy8m2eVrNsAVKAexjcZXUckd",
    "self" : "https://api.nasa.gov/neo/rest/v1/feed?start_date=2009-03-22&end_date=2009-03-22&detailed=true&api_key=t0TVs3DtDT2H8Oy2Zy8m2eVrNsAVKAexjcZXUckd"
  },
  "element_count" : 8,
  "near_earth_objects" : {
    "2009-03-22" : [ {
      "links" : {
        "self" : "https://api.nasa.gov/neo/rest/v1/neo/3392302?api_key=t0TVs3DtDT2H8Oy2Zy8m2eVrNsAVKAexjcZXUckd"
      },
      "neo_reference_id" : "3392302",
      "name" : "(2007 VD3)",
      "nasa_jpl_url" : "http://ssd.jpl.nasa.gov/sbdb.cgi?sstr=3392302",
      "absolute_magnitude_h" : 22.2,
      "estimated_diameter" : {
        "kilometers" : {
          "estimated_diameter_min" : 0.096506147,
          "estimated_diameter_max" : 0.2157943048
        },
        "meters" : {
          "estimated_diameter_min" : 96.5061469579,
          "estimated_diameter_max" : 215.7943048444
        },
        "miles" : {
          "estimated_diameter_min" : 0.059966121,
          "estimated_diameter_max" : 0.134088323
        },
        "feet" : {
          "estimated_diameter_min" : 316.6212271853,
          "estimated_diameter_max" : 707.9865871058
        }
      },
      "is_potentially_hazardous_asteroid" : false,
      "close_approach_data" : [ {
        "close_approach_date" : "2009-03-22",
        "epoch_date_close_approach" : 1237705200000,
        "relative_velocity" : {
          "kilometers_per_second" : "7.9503390272",
          "kilometers_per_hour" : "28621.2204980164",
          "miles_per_hour" : "17784.1133700036"
        },
        "miss_distance" : {
          "astronomical" : "0.2127986782",
          "lunar" : "82.7786865234",
          "kilometers" : "31834230",
          "miles" : "19780874"
        },
        "orbiting_body" : "Earth"
      } ],
      "orbital_data" : {
        "orbit_id" : "18",
        "orbit_determination_date" : "2017-04-06 09:05:26",
        "orbit_uncertainty" : "2",
        "minimum_orbit_intersection" : ".12965",
        "jupiter_tisserand_invariant" : "6.185",
        "epoch_osculation" : "2458000.5",
        "eccentricity" : ".1502642347922242",
        "semi_major_axis" : ".9721264420237856",
        "inclination" : "13.11923057470065",
        "ascending_node_longitude" : "53.78181622027498",
        "orbital_period" : "350.0923018012116",
        "perihelion_distance" : ".8260506060917939",
        "perihelion_argument" : "179.9071651747883",
        "aphelion_distance" : "1.118202277955777",
        "perihelion_time" : "2458100.287127510258",
        "mean_anomaly" : "257.3888722520649",
        "mean_motion" : "1.028300245814643",
        "equinox" : "J2000"
      }
    }, {
      "links" : {
        "self" : "https://api.nasa.gov/neo/rest/v1/neo/3445443?api_key=t0TVs3DtDT2H8Oy2Zy8m2eVrNsAVKAexjcZXUckd"
      },
      "neo_reference_id" : "3445443",
      "name" : "(2009 BE77)",
      "nasa_jpl_url" : "http://ssd.jpl.nasa.gov/sbdb.cgi?sstr=3445443",
      "absolute_magnitude_h" : 18.0,
      "estimated_diameter" : {
        "kilometers" : {
          "estimated_diameter_min" : 0.6676594135,
          "estimated_diameter_max" : 1.4929318344
        },
        "meters" : {
          "estimated_diameter_min" : 667.6594134952,
          "estimated_diameter_max" : 1492.931834393
        },
        "miles" : {
          "estimated_diameter_min" : 0.4148641974,
          "estimated_diameter_max" : 0.9276645469
        },
        "feet" : {
          "estimated_diameter_min" : 2190.4837101717,
          "estimated_diameter_max" : 4898.07047955
        }
      },
      "is_potentially_hazardous_asteroid" : false,
      "close_approach_data" : [ {
        "close_approach_date" : "2009-03-22",
        "epoch_date_close_approach" : 1237705200000,
        "relative_velocity" : {
          "kilometers_per_second" : "27.3429198433",
          "kilometers_per_hour" : "98434.5114358732",
          "miles_per_hour" : "61163.3773974735"
        },
        "miss_distance" : {
          "astronomical" : "0.4710165267",
          "lunar" : "183.2254333496",
          "kilometers" : "70463072",
          "miles" : "43783720"
        },
        "orbiting_body" : "Earth"
      } ],
      "orbital_data" : {
        "orbit_id" : "22",
        "orbit_determination_date" : "2017-01-03 06:17:49",
        "orbit_uncertainty" : "0",
        "minimum_orbit_intersection" : ".273964",
        "jupiter_tisserand_invariant" : "2.795",
        "epoch_osculation" : "2457800.5",
        "eccentricity" : ".8262772044180591",
        "semi_major_axis" : "2.521373670822068",
        "inclination" : "21.15627385303679",
        "ascending_node_longitude" : "201.2259122951268",
        "orbital_period" : "1462.359824115195",
        "perihelion_distance" : ".4380200828019102",
        "perihelion_argument" : "26.90970191156051",
        "aphelion_distance" : "4.604727258842226",
        "perihelion_time" : "2457861.153175617673",
        "mean_anomaly" : "345.0685564097923",
        "mean_motion" : ".2461774414637103",
        "equinox" : "J2000"
      }
    }, {
      "links" : {
        "self" : "https://api.nasa.gov/neo/rest/v1/neo/3514892?api_key=t0TVs3DtDT2H8Oy2Zy8m2eVrNsAVKAexjcZXUckd"
      },
      "neo_reference_id" : "3514892",
      "name" : "(2010 GD6)",
      "nasa_jpl_url" : "http://ssd.jpl.nasa.gov/sbdb.cgi?sstr=3514892",
      "absolute_magnitude_h" : 23.8,
      "estimated_diameter" : {
        "kilometers" : {
          "estimated_diameter_min" : 0.046190746,
          "estimated_diameter_max" : 0.1032856481
        },
        "meters" : {
          "estimated_diameter_min" : 46.1907460282,
          "estimated_diameter_max" : 103.2856480504
        },
        "miles" : {
          "estimated_diameter_min" : 0.0287015901,
          "estimated_diameter_max" : 0.0641787064
        },
        "feet" : {
          "estimated_diameter_min" : 151.544447199,
          "estimated_diameter_max" : 338.8636855496
        }
      },
      "is_potentially_hazardous_asteroid" : false,
      "close_approach_data" : [ {
        "close_approach_date" : "2009-03-22",
        "epoch_date_close_approach" : 1237705200000,
        "relative_velocity" : {
          "kilometers_per_second" : "13.1872476038",
          "kilometers_per_hour" : "47474.0913737329",
          "miles_per_hour" : "29498.5541649731"
        },
        "miss_distance" : {
          "astronomical" : "0.2832424458",
          "lunar" : "110.1813049316",
          "kilometers" : "42372464",
          "miles" : "26329030"
        },
        "orbiting_body" : "Earth"
      } ],
      "orbital_data" : {
        "orbit_id" : "11",
        "orbit_determination_date" : "2017-04-06 08:57:56",
        "orbit_uncertainty" : "8",
        "minimum_orbit_intersection" : ".00750919",
        "jupiter_tisserand_invariant" : "5.861",
        "epoch_osculation" : "2455295.5",
        "eccentricity" : ".05862174884545329",
        "semi_major_axis" : "1.03428757406674",
        "inclination" : "21.23229668788096",
        "ascending_node_longitude" : "189.1518718045477",
        "orbital_period" : "384.2026778500806",
        "perihelion_distance" : ".9736558276658268",
        "perihelion_argument" : "294.6785972239449",
        "aphelion_distance" : "1.094919320467654",
        "perihelion_time" : "2455223.612808820776",
        "mean_anomaly" : "67.35868934942461",
        "mean_motion" : ".9370054420611698",
        "equinox" : "J2000"
      }
    } ]
  }
}